FLOCK 4G-3              
1 62639U 25009AG  26068.80174065  .00011494  00000+0  43389-3 0  9993
2 62639  97.4062 151.4068 0001320 293.2042  66.9058 15.27179310 63727
STARLINK-35887          
1 66959U 25288A   26068.26435370  .00025292  00000+0  92626-3 0  9999
2 66959  43.0020  25.7544 0000996 280.2159  79.8580 15.27551778 15229
